{
  "norad_id": 38551,
  "name": "ECHOSTAR 17",
  "history": [
    {
      "epoch": "2026-04-14T15:16:54.022368Z",
      "apogee_km": 35794.35771190212,
      "perigee_km": 35779.321681212125,
      "latitude_deg": 0.03856112490456183,
      "longitude_deg": -107.11090424771352,
      "height_km": 35781.840450545904,
      "semi_major_axis_km": 42164.976696557125,
      "eccentricity": 0.0001783,
      "inclination_deg": 0.0189,
      "raan_deg": 204.3102,
      "arg_perigee_deg": 174.2069,
      "mean_anomaly_deg": 306.4287,
      "mean_motion_rev_day": 1.00270912
    },
    {
      "epoch": "2026-04-15T15:14:18.143808Z",
      "apogee_km": 35794.41619663063,
      "perigee_km": 35779.47289173138,
      "latitude_deg": 0.0411752189617538,
      "longitude_deg": -107.11380436652017,
      "height_km": 35782.08569824128,
      "semi_major_axis_km": 42165.081544181005,
      "eccentricity": 0.0001772,
      "inclination_deg": 0.019,
      "raan_deg": 209.3281,
      "arg_perigee_deg": 170.5868,
      "mean_anomaly_deg": 305.3646,
      "mean_motion_rev_day": 1.00270538
    },
    {
      "epoch": "2026-04-16T08:21:02.427264Z",
      "apogee_km": 35794.568430582585,
      "perigee_km": 35779.19506474718,
      "latitude_deg": 0.001229534101899475,
      "longitude_deg": -107.1137595281094,
      "height_km": 35793.34991135574,
      "semi_major_axis_km": 42165.018747664886,
      "eccentricity": 0.0001823,
      "inclination_deg": 0.0195,
      "raan_deg": 220.5188,
      "arg_perigee_deg": 156.6273,
      "mean_anomaly_deg": 205.5143,
      "mean_motion_rev_day": 1.00270762
    },
    {
      "epoch": "2026-04-17T14:53:51.669888Z",
      "apogee_km": 35795.629044448164,
      "perigee_km": 35778.903715543456,
      "latitude_deg": 0.041659677603603354,
      "longitude_deg": -107.13033062240477,
      "height_km": 35782.12943175022,
      "semi_major_axis_km": 42165.40337999581,
      "eccentricity": 0.00019833,
      "inclination_deg": 0.0159,
      "raan_deg": 222.8539,
      "arg_perigee_deg": 155.8038,
      "mean_anomaly_deg": 303.4567,
      "mean_motion_rev_day": 1.0026939
    },
    {
      "epoch": "2026-04-18T15:06:41.964768Z",
      "apogee_km": 35794.89581000265,
      "perigee_km": 35779.395852033966,
      "latitude_deg": 0.03749730029632763,
      "longitude_deg": -107.129238939794,
      "height_km": 35782.483218897934,
      "semi_major_axis_km": 42165.28283101831,
      "eccentricity": 0.0001838,
      "inclination_deg": 0.0135,
      "raan_deg": 221.3266,
      "arg_perigee_deg": 162.7484,
      "mean_anomaly_deg": 302.2425,
      "mean_motion_rev_day": 1.0026982
    },
    {
      "epoch": "2026-04-19T14:40:05.692800Z",
      "apogee_km": 35794.67274156315,
      "perigee_km": 35779.518556949006,
      "latitude_deg": 0.03783026638005018,
      "longitude_deg": -107.12301609462081,
      "height_km": 35783.315596458975,
      "semi_major_axis_km": 42165.23264925608,
      "eccentricity": 0.0001797,
      "inclination_deg": 0.0152,
      "raan_deg": 223.1577,
      "arg_perigee_deg": 162.0087,
      "mean_anomaly_deg": 295.4723,
      "mean_motion_rev_day": 1.00269999
    }
  ]
}